EROS C3                 
1 54880U 22179A   26204.24381909  .00005188  00000+0  28910-3 0  9990
2 54880 139.3352 210.8743 0008743 233.0253 126.9754 15.11087021197780
