{"fetched_at":"2026-07-23T17:55:26.101Z","source":"https://celestrak.org/NORAD/elements/gp.php?NAME=EROS&FORMAT=JSON","constellation":"eros","records":[{"OBJECT_NAME":"EROS C3","OBJECT_ID":"2022-179A","EPOCH":"2026-07-23T05:51:05.969376","CLASSIFICATION_TYPE":"U","MEAN_MOTION":15.11087021,"ECCENTRICITY":0.00087439,"INCLINATION":139.3352,"RA_OF_ASC_NODE":210.8743,"ARG_OF_PERICENTER":233.0253,"MEAN_ANOMALY":126.9754,"EPHEMERIS_TYPE":0,"NORAD_CAT_ID":54880,"ELEMENT_SET_NO":999,"REV_AT_EPOCH":19778,"BSTAR":0.00028910039,"MEAN_MOTION_DOT":0.00005188,"MEAN_MOTION_DDOT":0}]}
